     2.100          NAVIGATION                              RINEX VERSION / TYPE
fic2rin                                 06/02/2011 00:04:49 PGM / RUN BY / DATE
                                                            END OF HEADER
 6 11  6  1 20  0  0.0  .300251413137D-03 -.870841176948D-10  .000000000000D+00
     .230000000000D+02  .160937500000D+02  .534700843865D-08  .970592596940D+00
     .592321157455D-06  .678331067320D-02  .642612576485D-05  .515363308144D+04
     .331200000000D+06  .121071934700D-06 -.209529701870D+01 -.670552253723D-07
     .935718811142D+00  .238625000000D+03 -.781758271073D+00 -.834999066777D-08
     .362157942475D-09  .100000000000D+01  .163800000000D+04  .000000000000D+00
     .240000000000D+01  .000000000000D+00 -.512227416039D-08  .230000000000D+02
     .324006000000D+06  .400000000000D+01
 7 11  6  1 20  0  0.0  .129225663841D-04  .125055521494D-11  .000000000000D+00
     .940000000000D+02 -.108156250000D+03  .443589905872D-08 -.271834400370D+01
    -.554323196411D-05  .446904776618D-02  .248104333878D-05  .515365872192D+04
     .331200000000D+06 -.800937414169D-07  .215689502185D+01  .558793544769D-08
     .974438791436D+00  .342281250000D+03 -.313224702380D+01 -.816176854185D-08
    -.256082095419D-09  .100000000000D+01  .163800000000D+04  .000000000000D+00
     .240000000000D+01  .000000000000D+00 -.107102096081D-07  .940000000000D+02
     .324006000000D+06  .400000000000D+01
 9 11  6  1 20  0  0.0  .836825929582D-04  .238742359215D-11  .000000000000D+00
     .150000000000D+02 -.103750000000D+03  .416588781166D-08  .285401747968D+01
    -.538863241673D-05  .173883669777D-01  .208429992199D-05  .515367095757D+04
     .331200000000D+06  .298023223877D-06  .212847946785D+01 -.154599547386D-06
     .983332025509D+00  .348718750000D+03  .157045744182D+01 -.783639784600D-08
    -.283226083217D-09  .100000000000D+01  .163800000000D+04  .000000000000D+00
     .240000000000D+01  .000000000000D+00 -.558793544769D-08  .150000000000D+02
     .324006000000D+06  .400000000000D+01
11 11  6  1 20  0  0.0 -.155890826136D-03 -.329691829393D-11  .000000000000D+00
     .400000000000D+02 -.204687500000D+02  .639990943906D-08 -.257023649500D+01
    -.108964741230D-05  .117449586978D-01  .468455255032D-05  .515365663147D+04
     .331200000000D+06  .745058059692D-07 -.124810985210D+01 -.782310962677D-07
     .887502087476D+00  .249000000000D+03  .931419537751D+00 -.867821862550D-08
    -.215723271454D-09  .100000000000D+01  .163800000000D+04  .000000000000D+00
     .240000000000D+01  .000000000000D+00 -.116415321827D-07  .400000000000D+02
     .324006000000D+06  .400000000000D+01
12 11  6  1 20  0  0.0 -.464264303446D-06  .261479726760D-11  .000000000000D+00
     .840000000000D+02 -.778750000000D+02  .381551607442D-08 -.284194765213D+01
    -.416487455368D-05  .373733066954D-02  .108499079943D-04  .515374861717D+04
     .331200000000D+06 -.707805156708D-07 -.307161042847D+01  .111758708954D-07
     .975686088556D+00  .176531250000D+03 -.164286974503D+00 -.749852662945D-08
     .154292141173D-09  .100000000000D+01  .163800000000D+04  .000000000000D+00
     .240000000000D+01  .000000000000D+00 -.121071934700D-07  .840000000000D+02
     .324006000000D+06  .400000000000D+01
13 11  6  1 20  0  0.0  .267370603979D-03 -.159161572810D-11  .000000000000D+00
     .810000000000D+02  .931562500000D+02  .412160025262D-08 -.255513521884D+00
     .456906855106D-05  .477726396639D-02  .210106372833D-05  .515359272003D+04
     .331200000000D+06 -.447034835815D-07  .118146664826D+01 -.316649675369D-07
     .989523682913D+00  .354906250000D+03  .185551407791D+01 -.818819821418D-08
     .342157109360D-09  .100000000000D+01  .163800000000D+04  .000000000000D+00
     .240000000000D+01  .000000000000D+00 -.111758708954D-07  .810000000000D+02
     .324006000000D+06  .400000000000D+01
15 11  6  1 20  0  0.0 -.124265905470D-03  .238742359215D-11  .000000000000D+00
     .720000000000D+02  .100187500000D+03  .487198865217D-08 -.630788203272D+00
     .522471964359D-05  .340499111917D-02  .229105353355D-05  .515362596130D+04
     .331200000000D+06  .149011611938D-07  .108119489595D+01 -.167638063431D-07
     .949800611876D+00  .325656250000D+03 -.474425269374D-01 -.846606693138D-08
     .329656588663D-09  .100000000000D+01  .163800000000D+04  .000000000000D+00
     .240000000000D+01  .000000000000D+00 -.102445483208D-07  .720000000000D+02
     .324006000000D+06  .400000000000D+01
16 11  6  1 20  0  0.0 -.176143832505D-03 -.261479726760D-11  .000000000000D+00
     .730000000000D+02 -.810000000000D+02  .389730519555D-08  .109677706839D+01
    -.398606061935D-05  .640631571878D-02  .110603868961D-04  .515382038116D+04
     .331200000000D+06  .447034835815D-07 -.305378668078D+01  .782310962677D-07
     .976693266692D+00  .169406250000D+03 -.104342392085D+00 -.758353017019D-08
     .121433629627D-09  .100000000000D+01  .163800000000D+04  .000000000000D+00
     .240000000000D+01  .000000000000D+00 -.977888703346D-08  .730000000000D+02
     .324006000000D+06  .400000000000D+01
17 11  6  1 20  0  0.0  .184095930308D-03 -.227373675443D-12  .000000000000D+00
     .176000000000D+03  .151250000000D+02  .479948563213D-08  .609153982623D-01
     .840052962303D-06  .633740797639D-02  .655837357044D-05  .515375623894D+04
     .331200000000D+06  .484287738800D-07 -.201165254019D+01  .106170773506D-06
     .960941995548D+00  .253875000000D+03 -.239032816818D+01 -.810212320024D-08
     .370729728096D-09  .100000000000D+01  .163800000000D+04  .000000000000D+00
     .240000000000D+01  .000000000000D+00 -.107102096081D-07  .176000000000D+03
     .324006000000D+06  .400000000000D+01
18 11  6  1 20  0  0.0  .140029471368D-03  .193267624127D-11  .000000000000D+00
     .430000000000D+02  .800937500000D+02  .476126975457D-08  .149323004616D+01
     .424310564995D-05  .124073078623D-01  .106599181890D-04  .515361200714D+04
     .331200000000D+06 -.270083546638D-06  .690133286250D-01  .372529029846D-07
     .933470289962D+00  .158843750000D+03 -.225143807474D+01 -.816605443466D-08
    -.191079387795D-09  .100000000000D+01  .163800000000D+04  .000000000000D+00
     .240000000000D+01  .000000000000D+00 -.107102096081D-07  .430000000000D+02
     .324006000000D+06  .400000000000D+01
19 11  6  1 20  0  0.0 -.146811828017D-03 -.397903932026D-11  .000000000000D+00
     .550000000000D+02  .142500000000D+02  .481912930751D-08 -.565082748936D+00
     .679865479469D-06  .738317938522D-02  .615417957306D-05  .515365159035D+04
     .331200000000D+06  .201165676117D-06 -.195762220787D+01 -.726431608200D-07
     .958408929487D+00  .261000000000D+03  .120812719649D-01 -.808212236712D-08
     .282511767749D-09  .100000000000D+01  .163800000000D+04  .000000000000D+00
     .240000000000D+01  .000000000000D+00 -.144354999065D-07  .550000000000D+02
     .324006000000D+06  .400000000000D+01
20 11  6  1 20  0  0.0  .496329739690D-04  .227373675443D-12  .000000000000D+00
     .113000000000D+03  .863125000000D+02  .469626704694D-08  .185627884613D+01
     .448152422905D-05  .456055870745D-02  .111628323793D-04  .515365983009D+04
     .331200000000D+06 -.372529029846D-08  .151301468485D-01 -.149011611938D-06
     .933627531711D+00  .147750000000D+03  .129373068908D+01 -.797890378194D-08
    -.168221292806D-09  .100000000000D+01  .163800000000D+04  .000000000000D+00
     .240000000000D+01  .000000000000D+00 -.745058059692D-08  .113000000000D+03
     .324006000000D+06  .400000000000D+01
21 11  6  1 20  0  0.0 -.148284714669D-03 -.261479726760D-11  .000000000000D+00
     .620000000000D+02 -.262812500000D+02  .518057293451D-08  .269112019251D+01
    -.152923166752D-05  .179077348439D-01  .672228634357D-05  .515375075722D+04
     .331200000000D+06 -.465661287308D-07 -.984769926226D+00 -.232830643654D-06
     .931425093914D+00  .233375000000D+03 -.235997138626D+01 -.801604818630D-08
    -.485734518507D-09  .100000000000D+01  .163800000000D+04  .000000000000D+00
     .240000000000D+01  .000000000000D+00 -.116415321827D-07  .620000000000D+02
     .324006000000D+06  .400000000000D+01
22 11  6  1 20  0  0.0  .147975515574D-03 -.568434188608D-12  .000000000000D+00
     .330000000000D+02  .911250000000D+02  .487306012537D-08  .692731730120D+00
     .471621751785D-05  .568322429899D-02  .102613121271D-04  .515371101379D+04
     .331200000000D+06 -.856816768646D-07  .731345166090D-01  .000000000000D+00
     .931167659831D+00  .166031250000D+03 -.198474442672D+01 -.813962476233D-08
    -.182150444440D-09  .100000000000D+01  .163800000000D+04  .000000000000D+00
     .240000000000D+01  .000000000000D+00 -.167638063431D-07  .330000000000D+02
     .324006000000D+06  .400000000000D+01
25 11  6  1 20  0  0.0  .195577740669D-05  .147792889038D-11  .000000000000D+00
     .370000000000D+02 -.777812500000D+02  .416053044565D-08  .186319740997D+01
    -.413507223129D-05  .853405450471D-03  .110436230898D-04  .515365493965D+04
     .331200000000D+06 -.353902578354D-07 -.310149717189D+01 -.353902578354D-07
     .964471778418D+00  .168125000000D+03  .859249141210D+00 -.768210570482D-08
     .170007081477D-09  .100000000000D+01  .163800000000D+04  .000000000000D+00
     .240000000000D+01  .000000000000D+00  .512227416039D-08  .370000000000D+02
     .324006000000D+06  .400000000000D+01
26 11  6  1 20  0  0.0 -.476934947073D-04 -.112549969344D-10  .000000000000D+00
     .100000000000D+02  .910000000000D+02  .409052752975D-08 -.132993147470D+01
     .524707138538D-05  .204699810129D-01  .179372727871D-05  .515365623093D+04
     .331200000000D+06  .325962901115D-06  .117670491720D+01  .374391674995D-06
     .987156283547D+00  .357250000000D+03  .115085780994D+01 -.804533512050D-08
     .307512809143D-09  .100000000000D+01  .163800000000D+04  .000000000000D+00
     .240000000000D+01  .000000000000D+00 -.605359673500D-08  .100000000000D+02
     .324006000000D+06  .400000000000D+01
